STARLINK-37518          
1 69259U 26117X   26159.83336806 -.01882544  10022-2 -47587-2 0  9992
2 69259  53.1549 284.9573 0000902  55.4438 177.6637 15.95007147  2837
STARLINK-37478          
1 69260U 26117Y   26159.83336806 -.01942061  10628-2 -48947-2 0  9998
2 69260  53.1550 284.9652 0001015  50.9526 178.4299 15.95069505  2832
STARLINK-37506          
1 69261U 26117Z   26159.83336806 -.01938006  10610-2 -48293-2 0  9998
2 69261  53.1547 284.9559 0000968  50.3822 183.3957 15.95280197  2832
STARLINK-37503          
1 69262U 26117AA  26159.83336806 -.00778676  19984-3 -20049-2 0  9996
2 69262  53.1550 284.9486 0000914  42.7895 194.2376 15.94474949  2837
STARLINK-37502          
1 69263U 26117AB  26159.83336806 -.01910486  10300-2 -48321-2 0  9990
2 69263  53.1548 284.9418 0000946  49.6238 190.4088 15.95000190  2834
STARLINK-37486          
1 69264U 26117AC  26159.83336806 -.01915995  10329-2 -49112-2 0  9991
2 69264  53.1546 284.9291 0000879  51.4861 194.7675 15.94752223  2839
STARLINK-37435          
1 69265U 26117AD  26159.83336806 -.01890762  99534-3 -51649-2 0  9990
2 69265  53.1547 284.9075 0000977  59.8393 196.3085 15.93552468  2833
STARLINK-37464          
1 69266U 26117AE  26159.83336806 -.02091724  12020-2 -57285-2 0  9999
2 69266  53.1547 284.8840 0000815  52.9635 214.4953 15.93529200  2831
KUIPER-00282            
1 69267U 26118A   26159.83336806 -.00404420  00000+0 -12278-1 0  9994
2 69267  51.8582  93.8064 0012036 152.5555 272.7691 15.35100893  2079
KUIPER-00383            
1 69268U 26118B   26159.83336806  .00025676  00000+0  75269-3 0  9996
2 69268  51.8588  93.7762 0010637 152.2699 287.9118 15.34977574  2137
KUIPER-00527            
1 69269U 26118C   26159.83336806  .00029632  00000+0  85076-3 0  9990
2 69269  51.8616  93.7513 0010003 148.0931 304.7251 15.35558724  1300
KUIPER-00562            
1 69270U 26118D   26159.83336806  .00026147  00000+0  68652-3 0  9991
2 69270  51.8720  93.5762 0002115  95.3885  78.4084 15.38447439  2661
KUIPER-00570            
1 69271U 26118E   26159.83336806  .00032467  00000+0  93625-3 0  9992
2 69271  51.8574  93.7756 0011679 155.2450 285.1318 15.35357464  2250
KUIPER-00572            
1 69272U 26118F   26159.83336806  .00025147  00000+0  69618-3 0  9995
2 69272  51.8673  93.7039 0007439 140.9343 335.1250 15.36808423  2007
KUIPER-00581            
1 69273U 26118G   26159.83336806  .00024950  00000+0  69764-3 0  9999
2 69273  51.8653  93.7274 0008969 145.4852 319.2688 15.36490594  2791
KUIPER-00584            
1 69274U 26118H   26159.83336806  .00025041  00000+0  72692-3 0  9996
2 69274  51.8601  93.7962 0011318 158.3755 272.1440 15.35293145  1307
KUIPER-00587            
1 69275U 26118J   26159.83336806  .00024878  00000+0  69630-3 0  9992
2 69275  51.8627  93.7214 0008513 147.5105 320.2041 15.36466641  1304
KUIPER-00590            
1 69276U 26118K   26159.83336806  .00024413  00000+0  65748-3 0  9994
2 69276  51.8688  93.6397 0004452 127.7898  19.5368 15.37696965  2553
KUIPER-00592            
1 69277U 26118L   26159.83336806  .00024819  00000+0  66351-3 0  9996
2 69277  51.8709  93.6220 0003867 106.8980  47.8332 15.37917162  1304
KUIPER-00593            
1 69278U 26118M   26159.83336806  .00024010  00000+0  64435-3 0  9991
2 69278  51.8715  93.6235 0004203 123.9206  29.4346 15.37817053  2764
KUIPER-00594            
1 69279U 26118N   26159.83336806  .00024628  00000+0  64790-3 0  9991
2 69279  51.8717  93.5677 0001274  67.2564 112.6258 15.38422504  1308
KUIPER-00595            
1 69280U 26118P   26159.83336806  .00012223  00000+0  32829-3 0  9999
2 69280  51.8711  93.5883 0002113 108.1975  62.7191 15.38323129  2739
KUIPER-00596            
1 69281U 26118Q   26159.83336806  .00033913  00000+0  97055-3 0  9991
2 69281  51.8548  93.7831 0012213 156.1171 279.7935 15.35566841  2009
KUIPER-00597            
1 69282U 26118R   26159.83336806  .00024375  00000+0  67372-3 0  9993
2 69282  51.8649  93.6881 0007352 139.1125 345.0834 15.36876611  1301
KUIPER-00599            
1 69283U 26118S   26159.83336806  .00024087  00000+0  65949-3 0  9992
2 69283  51.8690  93.6742 0006427 134.3843 355.7246 15.37184411  1801
KUIPER-00600            
1 69284U 26118T   26159.83336806  .00024473  00000+0  68239-3 0  9997
2 69284  51.8640  93.7169 0009149 141.7770 328.1639 15.36587678  2583
KUIPER-00601            
1 69285U 26118U   26159.83336806  .00024649  00000+0  66774-3 0  9995
2 69285  51.8705  93.6516 0004956 126.6802  13.8541 15.37508100  2618
KUIPER-00602            
1 69286U 26118V   26159.83336806  .00024487  00000+0  65421-3 0  9994
2 69286  51.8702  93.6164 0003368 115.7420  42.3154 15.37946762  1308
KUIPER-00603            
1 69287U 26118W   26159.83336806  .00024057  00000+0  65509-3 0  9995
2 69287  51.8672  93.6625 0005748 129.4849   7.0405 15.37357156  2567
KUIPER-00605            
1 69288U 26118X   26159.83336806  .00025590  00000+0  70579-3 0  9992
2 69288  51.8662  93.6972 0007873 135.8195 343.6628 15.36911969  2404
