OBJECT_NAME,OBJECT_ID,EPOCH,MEAN_MOTION,ECCENTRICITY,INCLINATION,RA_OF_ASC_NODE,ARG_OF_PERICENTER,MEAN_ANOMALY,EPHEMERIS_TYPE,CLASSIFICATION_TYPE,NORAD_CAT_ID,ELEMENT_SET_NO,REV_AT_EPOCH,BSTAR,MEAN_MOTION_DOT,MEAN_MOTION_DDOT
STARLINK-37518,2026-117X,2026-06-08T20:00:03.000384,15.95007147,.0000902,53.1549,284.9573,55.4438,177.6637,0,U,69259,999,283,-.47587E-2,-.1882544E-1,.10022E-2
STARLINK-37478,2026-117Y,2026-06-08T20:00:03.000384,15.95069505,.0001015,53.1550,284.9652,50.9526,178.4299,0,U,69260,999,283,-.48947E-2,-.1942061E-1,.10628E-2
STARLINK-37506,2026-117Z,2026-06-08T20:00:03.000384,15.95280197,.0000968,53.1547,284.9559,50.3822,183.3957,0,U,69261,999,283,-.48293E-2,-.1938006E-1,.1061E-2
STARLINK-37503,2026-117AA,2026-06-08T20:00:03.000384,15.94474949,.0000914,53.1550,284.9486,42.7895,194.2376,0,U,69262,999,283,-.20049E-2,-.778676E-2,.19984E-3
STARLINK-37502,2026-117AB,2026-06-08T20:00:03.000384,15.95000190,.0000946,53.1548,284.9418,49.6238,190.4088,0,U,69263,999,283,-.48321E-2,-.1910486E-1,.103E-2
STARLINK-37486,2026-117AC,2026-06-08T20:00:03.000384,15.94752223,.0000879,53.1546,284.9291,51.4861,194.7675,0,U,69264,999,283,-.49112E-2,-.1915995E-1,.10329E-2
STARLINK-37435,2026-117AD,2026-06-08T20:00:03.000384,15.93552468,.0000977,53.1547,284.9075,59.8393,196.3085,0,U,69265,999,283,-.51649E-2,-.1890762E-1,.99534E-3
STARLINK-37464,2026-117AE,2026-06-08T20:00:03.000384,15.93529200,.0000815,53.1547,284.8840,52.9635,214.4953,0,U,69266,999,283,-.57285E-2,-.2091724E-1,.1202E-2
KUIPER-00282,2026-118A,2026-06-08T20:00:03.000384,15.35100893,.0012036,51.8582,93.8064,152.5555,272.7691,0,U,69267,999,207,-.12278E-1,-.40442E-2,0
KUIPER-00383,2026-118B,2026-06-08T20:00:03.000384,15.34977574,.0010637,51.8588,93.7762,152.2699,287.9118,0,U,69268,999,213,.75269E-3,.25676E-3,0
KUIPER-00527,2026-118C,2026-06-08T20:00:03.000384,15.35558724,.0010003,51.8616,93.7513,148.0931,304.7251,0,U,69269,999,130,.85076E-3,.29632E-3,0
KUIPER-00562,2026-118D,2026-06-08T20:00:03.000384,15.38447439,.0002115,51.8720,93.5762,95.3885,78.4084,0,U,69270,999,266,.68652E-3,.26147E-3,0
KUIPER-00570,2026-118E,2026-06-08T20:00:03.000384,15.35357464,.0011679,51.8574,93.7756,155.2450,285.1318,0,U,69271,999,225,.93625E-3,.32467E-3,0
KUIPER-00572,2026-118F,2026-06-08T20:00:03.000384,15.36808423,.0007439,51.8673,93.7039,140.9343,335.1250,0,U,69272,999,200,.69618E-3,.25147E-3,0
KUIPER-00581,2026-118G,2026-06-08T20:00:03.000384,15.36490594,.0008969,51.8653,93.7274,145.4852,319.2688,0,U,69273,999,279,.69764E-3,.2495E-3,0
KUIPER-00584,2026-118H,2026-06-08T20:00:03.000384,15.35293145,.0011318,51.8601,93.7962,158.3755,272.1440,0,U,69274,999,130,.72692E-3,.25041E-3,0
KUIPER-00587,2026-118J,2026-06-08T20:00:03.000384,15.36466641,.0008513,51.8627,93.7214,147.5105,320.2041,0,U,69275,999,130,.6963E-3,.24878E-3,0
KUIPER-00590,2026-118K,2026-06-08T20:00:03.000384,15.37696965,.0004452,51.8688,93.6397,127.7898,19.5368,0,U,69276,999,255,.65748E-3,.24413E-3,0
KUIPER-00592,2026-118L,2026-06-08T20:00:03.000384,15.37917162,.0003867,51.8709,93.6220,106.8980,47.8332,0,U,69277,999,130,.66351E-3,.24819E-3,0
KUIPER-00593,2026-118M,2026-06-08T20:00:03.000384,15.37817053,.0004203,51.8715,93.6235,123.9206,29.4346,0,U,69278,999,276,.64435E-3,.2401E-3,0
KUIPER-00594,2026-118N,2026-06-08T20:00:03.000384,15.38422504,.0001274,51.8717,93.5677,67.2564,112.6258,0,U,69279,999,130,.6479E-3,.24628E-3,0
KUIPER-00595,2026-118P,2026-06-08T20:00:03.000384,15.38323129,.0002113,51.8711,93.5883,108.1975,62.7191,0,U,69280,999,273,.32829E-3,.12223E-3,0
KUIPER-00596,2026-118Q,2026-06-08T20:00:03.000384,15.35566841,.0012213,51.8548,93.7831,156.1171,279.7935,0,U,69281,999,200,.97055E-3,.33913E-3,0
KUIPER-00597,2026-118R,2026-06-08T20:00:03.000384,15.36876611,.0007352,51.8649,93.6881,139.1125,345.0834,0,U,69282,999,130,.67372E-3,.24375E-3,0
KUIPER-00599,2026-118S,2026-06-08T20:00:03.000384,15.37184411,.0006427,51.8690,93.6742,134.3843,355.7246,0,U,69283,999,180,.65949E-3,.24087E-3,0
KUIPER-00600,2026-118T,2026-06-08T20:00:03.000384,15.36587678,.0009149,51.8640,93.7169,141.7770,328.1639,0,U,69284,999,258,.68239E-3,.24473E-3,0
KUIPER-00601,2026-118U,2026-06-08T20:00:03.000384,15.37508100,.0004956,51.8705,93.6516,126.6802,13.8541,0,U,69285,999,261,.66774E-3,.24649E-3,0
KUIPER-00602,2026-118V,2026-06-08T20:00:03.000384,15.37946762,.0003368,51.8702,93.6164,115.7420,42.3154,0,U,69286,999,130,.65421E-3,.24487E-3,0
KUIPER-00603,2026-118W,2026-06-08T20:00:03.000384,15.37357156,.0005748,51.8672,93.6625,129.4849,7.0405,0,U,69287,999,256,.65509E-3,.24057E-3,0
KUIPER-00605,2026-118X,2026-06-08T20:00:03.000384,15.36911969,.0007873,51.8662,93.6972,135.8195,343.6628,0,U,69288,999,240,.70579E-3,.2559E-3,0
